STARLINK-36903          
1 68001U 26039R   26076.25002315 -.01861792  00000+0 -19378-1 0  9998
2 68001  42.9998   8.6935 0001403 262.2496  17.1452 15.66689111  4095
STARLINK-36898          
1 68002U 26039S   26076.25002315 -.01896245  00000+0 -17416-1 0  9991
2 68002  43.0000   8.5825 0001534 265.0465  59.0609 15.69758841  4090
STARLINK-36862          
1 68003U 26039T   26076.25002315 -.01867161  00000+0 -18715-1 0  9990
2 68003  43.0002   8.6222 0001490 263.8347  44.4396 15.67614702  4097
STARLINK-36888          
1 68004U 26039U   26076.25002315 -.01865594  00000+0 -18951-1 0  9991
2 68004  42.9999   8.6639 0001509 260.6689  30.6747 15.67286900  4090
STARLINK-36910          
1 68005U 26039V   26076.25002315 -.01894596  00000+0 -16554-1 0  9993
2 68005  42.9998   8.5431 0001485 267.4423  72.7524 15.70937217  4091
STARLINK-36889          
1 68006U 26039W   26076.25002315 -.01871269  00000+0 -20321-1 0  9993
2 68006  43.0000   8.6748 0001498 261.7060  24.9751 15.65662937  4097
STARLINK-36592          
1 68007U 26039X   26076.25002315 -.01887038  00000+0 -17112-1 0  9999
2 68007  43.0002   8.5322 0001553 267.2706  76.9817 15.70047273  4093
STARLINK-36911          
1 68008U 26039Y   26076.25002315 -.01863546  00000+0 -17974-1 0  9994
2 68008  42.9999   8.5626 0001585 264.3521  67.7566 15.68536533  4090
STARLINK-36956          
1 68009U 26039Z   26076.25002315 -.01869237  00000+0 -18914-1 0  9993
2 68009  43.0001   8.5855 0001489 261.0079  61.4690 15.67388715  4091
STARLINK-36953          
1 68010U 26039AA  26076.25002315 -.01863088  00000+0 -14033-1 0  9991
2 68010  43.0003   8.3909 0001532 267.9329 132.7200 15.74829569  4099
STARLINK-36991          
1 68011U 26039AB  26076.25002315 -.01841525  00000+0 -28261-1 0  9992
2 68011  42.9999   9.0054 0001138 275.0841 238.4092 15.56768310  4091
STARLINK-36936          
1 68012U 26039AC  26076.25002315 -.01853627  00000+0 -18912-1 0  9991
2 68012  43.0002   8.5382 0001621 264.7140  76.3575 15.67159999  4095
