CCSDS_OMM_VERS = 2.0
CREATION_DATE  = 
ORIGINATOR     = 

OBJECT_NAME    = STARLINK-36903
OBJECT_ID      = 2026-039R
CENTER_NAME    = EARTH
REF_FRAME      = TEME
TIME_SYSTEM    = UTC
MEAN_ELEMENT_THEORY = SGP/SGP4

EPOCH          = 2026-03-17T06:00:02.000160
MEAN_MOTION    = 15.66689111
ECCENTRICITY   = .00014032
INCLINATION    = 42.9998
RA_OF_ASC_NODE = 8.6935
ARG_OF_PERICENTER = 262.2496
MEAN_ANOMALY   = 17.1452

EPHEMERIS_TYPE = 0
CLASSIFICATION_TYPE = U
NORAD_CAT_ID   = 68001
ELEMENT_SET_NO = 999
REV_AT_EPOCH   = 409
BSTAR          = -.19378321E-1
MEAN_MOTION_DOT = -.1861792E-1
MEAN_MOTION_DDOT = 0

CCSDS_OMM_VERS = 2.0
CREATION_DATE  = 
ORIGINATOR     = 

OBJECT_NAME    = STARLINK-36898
OBJECT_ID      = 2026-039S
CENTER_NAME    = EARTH
REF_FRAME      = TEME
TIME_SYSTEM    = UTC
MEAN_ELEMENT_THEORY = SGP/SGP4

EPOCH          = 2026-03-17T06:00:02.000160
MEAN_MOTION    = 15.69758841
ECCENTRICITY   = .0001534
INCLINATION    = 43.0000
RA_OF_ASC_NODE = 8.5825
ARG_OF_PERICENTER = 265.0465
MEAN_ANOMALY   = 59.0609

EPHEMERIS_TYPE = 0
CLASSIFICATION_TYPE = U
NORAD_CAT_ID   = 68002
ELEMENT_SET_NO = 999
REV_AT_EPOCH   = 409
BSTAR          = -.17416493E-1
MEAN_MOTION_DOT = -.1896245E-1
MEAN_MOTION_DDOT = 0

CCSDS_OMM_VERS = 2.0
CREATION_DATE  = 
ORIGINATOR     = 

OBJECT_NAME    = STARLINK-36862
OBJECT_ID      = 2026-039T
CENTER_NAME    = EARTH
REF_FRAME      = TEME
TIME_SYSTEM    = UTC
MEAN_ELEMENT_THEORY = SGP/SGP4

EPOCH          = 2026-03-17T06:00:02.000160
MEAN_MOTION    = 15.67614702
ECCENTRICITY   = .00014909
INCLINATION    = 43.0002
RA_OF_ASC_NODE = 8.6222
ARG_OF_PERICENTER = 263.8347
MEAN_ANOMALY   = 44.4396

EPHEMERIS_TYPE = 0
CLASSIFICATION_TYPE = U
NORAD_CAT_ID   = 68003
ELEMENT_SET_NO = 999
REV_AT_EPOCH   = 409
BSTAR          = -.18715095E-1
MEAN_MOTION_DOT = -.1867161E-1
MEAN_MOTION_DDOT = 0

CCSDS_OMM_VERS = 2.0
CREATION_DATE  = 
ORIGINATOR     = 

OBJECT_NAME    = STARLINK-36888
OBJECT_ID      = 2026-039U
CENTER_NAME    = EARTH
REF_FRAME      = TEME
TIME_SYSTEM    = UTC
MEAN_ELEMENT_THEORY = SGP/SGP4

EPOCH          = 2026-03-17T06:00:02.000160
MEAN_MOTION    = 15.67286900
ECCENTRICITY   = .00015095
INCLINATION    = 42.9999
RA_OF_ASC_NODE = 8.6639
ARG_OF_PERICENTER = 260.6689
MEAN_ANOMALY   = 30.6747

EPHEMERIS_TYPE = 0
CLASSIFICATION_TYPE = U
NORAD_CAT_ID   = 68004
ELEMENT_SET_NO = 999
REV_AT_EPOCH   = 409
BSTAR          = -.18951459E-1
MEAN_MOTION_DOT = -.1865594E-1
MEAN_MOTION_DDOT = 0

CCSDS_OMM_VERS = 2.0
CREATION_DATE  = 
ORIGINATOR     = 

OBJECT_NAME    = STARLINK-36910
OBJECT_ID      = 2026-039V
CENTER_NAME    = EARTH
REF_FRAME      = TEME
TIME_SYSTEM    = UTC
MEAN_ELEMENT_THEORY = SGP/SGP4

EPOCH          = 2026-03-17T06:00:02.000160
MEAN_MOTION    = 15.70937217
ECCENTRICITY   = .00014858
INCLINATION    = 42.9998
RA_OF_ASC_NODE = 8.5431
ARG_OF_PERICENTER = 267.4423
MEAN_ANOMALY   = 72.7524

EPHEMERIS_TYPE = 0
CLASSIFICATION_TYPE = U
NORAD_CAT_ID   = 68005
ELEMENT_SET_NO = 999
REV_AT_EPOCH   = 409
BSTAR          = -.16554313E-1
MEAN_MOTION_DOT = -.1894596E-1
MEAN_MOTION_DDOT = 0

CCSDS_OMM_VERS = 2.0
CREATION_DATE  = 
ORIGINATOR     = 

OBJECT_NAME    = STARLINK-36889
OBJECT_ID      = 2026-039W
CENTER_NAME    = EARTH
REF_FRAME      = TEME
TIME_SYSTEM    = UTC
MEAN_ELEMENT_THEORY = SGP/SGP4

EPOCH          = 2026-03-17T06:00:02.000160
MEAN_MOTION    = 15.65662937
ECCENTRICITY   = .00014988
INCLINATION    = 43.0000
RA_OF_ASC_NODE = 8.6748
ARG_OF_PERICENTER = 261.7060
MEAN_ANOMALY   = 24.9751

EPHEMERIS_TYPE = 0
CLASSIFICATION_TYPE = U
NORAD_CAT_ID   = 68006
ELEMENT_SET_NO = 999
REV_AT_EPOCH   = 409
BSTAR          = -.20320732E-1
MEAN_MOTION_DOT = -.1871269E-1
MEAN_MOTION_DDOT = 0

CCSDS_OMM_VERS = 2.0
CREATION_DATE  = 
ORIGINATOR     = 

OBJECT_NAME    = STARLINK-36592
OBJECT_ID      = 2026-039X
CENTER_NAME    = EARTH
REF_FRAME      = TEME
TIME_SYSTEM    = UTC
MEAN_ELEMENT_THEORY = SGP/SGP4

EPOCH          = 2026-03-17T06:00:02.000160
MEAN_MOTION    = 15.70047273
ECCENTRICITY   = .00015532
INCLINATION    = 43.0002
RA_OF_ASC_NODE = 8.5322
ARG_OF_PERICENTER = 267.2706
MEAN_ANOMALY   = 76.9817

EPHEMERIS_TYPE = 0
CLASSIFICATION_TYPE = U
NORAD_CAT_ID   = 68007
ELEMENT_SET_NO = 999
REV_AT_EPOCH   = 409
BSTAR          = -.17112063E-1
MEAN_MOTION_DOT = -.1887038E-1
MEAN_MOTION_DDOT = 0

CCSDS_OMM_VERS = 2.0
CREATION_DATE  = 
ORIGINATOR     = 

OBJECT_NAME    = STARLINK-36911
OBJECT_ID      = 2026-039Y
CENTER_NAME    = EARTH
REF_FRAME      = TEME
TIME_SYSTEM    = UTC
MEAN_ELEMENT_THEORY = SGP/SGP4

EPOCH          = 2026-03-17T06:00:02.000160
MEAN_MOTION    = 15.68536533
ECCENTRICITY   = .00015852
INCLINATION    = 42.9999
RA_OF_ASC_NODE = 8.5626
ARG_OF_PERICENTER = 264.3521
MEAN_ANOMALY   = 67.7566

EPHEMERIS_TYPE = 0
CLASSIFICATION_TYPE = U
NORAD_CAT_ID   = 68008
ELEMENT_SET_NO = 999
REV_AT_EPOCH   = 409
BSTAR          = -.17974032E-1
MEAN_MOTION_DOT = -.1863546E-1
MEAN_MOTION_DDOT = 0

CCSDS_OMM_VERS = 2.0
CREATION_DATE  = 
ORIGINATOR     = 

OBJECT_NAME    = STARLINK-36956
OBJECT_ID      = 2026-039Z
CENTER_NAME    = EARTH
REF_FRAME      = TEME
TIME_SYSTEM    = UTC
MEAN_ELEMENT_THEORY = SGP/SGP4

EPOCH          = 2026-03-17T06:00:02.000160
MEAN_MOTION    = 15.67388715
ECCENTRICITY   = .00014898
INCLINATION    = 43.0001
RA_OF_ASC_NODE = 8.5855
ARG_OF_PERICENTER = 261.0079
MEAN_ANOMALY   = 61.4690

EPHEMERIS_TYPE = 0
CLASSIFICATION_TYPE = U
NORAD_CAT_ID   = 68009
ELEMENT_SET_NO = 999
REV_AT_EPOCH   = 409
BSTAR          = -.18913859E-1
MEAN_MOTION_DOT = -.1869237E-1
MEAN_MOTION_DDOT = 0

CCSDS_OMM_VERS = 2.0
CREATION_DATE  = 
ORIGINATOR     = 

OBJECT_NAME    = STARLINK-36953
OBJECT_ID      = 2026-039AA
CENTER_NAME    = EARTH
REF_FRAME      = TEME
TIME_SYSTEM    = UTC
MEAN_ELEMENT_THEORY = SGP/SGP4

EPOCH          = 2026-03-17T06:00:02.000160
MEAN_MOTION    = 15.74829569
ECCENTRICITY   = .00015321
INCLINATION    = 43.0003
RA_OF_ASC_NODE = 8.3909
ARG_OF_PERICENTER = 267.9329
MEAN_ANOMALY   = 132.7200

EPHEMERIS_TYPE = 0
CLASSIFICATION_TYPE = U
NORAD_CAT_ID   = 68010
ELEMENT_SET_NO = 999
REV_AT_EPOCH   = 409
BSTAR          = -.14032771E-1
MEAN_MOTION_DOT = -.1863088E-1
MEAN_MOTION_DDOT = 0

CCSDS_OMM_VERS = 2.0
CREATION_DATE  = 
ORIGINATOR     = 

OBJECT_NAME    = STARLINK-36991
OBJECT_ID      = 2026-039AB
CENTER_NAME    = EARTH
REF_FRAME      = TEME
TIME_SYSTEM    = UTC
MEAN_ELEMENT_THEORY = SGP/SGP4

EPOCH          = 2026-03-17T06:00:02.000160
MEAN_MOTION    = 15.56768310
ECCENTRICITY   = .00011385
INCLINATION    = 42.9999
RA_OF_ASC_NODE = 9.0054
ARG_OF_PERICENTER = 275.0841
MEAN_ANOMALY   = 238.4092

EPHEMERIS_TYPE = 0
CLASSIFICATION_TYPE = U
NORAD_CAT_ID   = 68011
ELEMENT_SET_NO = 999
REV_AT_EPOCH   = 409
BSTAR          = -.28260581E-1
MEAN_MOTION_DOT = -.1841525E-1
MEAN_MOTION_DDOT = 0

CCSDS_OMM_VERS = 2.0
CREATION_DATE  = 
ORIGINATOR     = 

OBJECT_NAME    = STARLINK-36936
OBJECT_ID      = 2026-039AC
CENTER_NAME    = EARTH
REF_FRAME      = TEME
TIME_SYSTEM    = UTC
MEAN_ELEMENT_THEORY = SGP/SGP4

EPOCH          = 2026-03-17T06:00:02.000160
MEAN_MOTION    = 15.67159999
ECCENTRICITY   = .00016213
INCLINATION    = 43.0002
RA_OF_ASC_NODE = 8.5382
ARG_OF_PERICENTER = 264.7140
MEAN_ANOMALY   = 76.3575

EPHEMERIS_TYPE = 0
CLASSIFICATION_TYPE = U
NORAD_CAT_ID   = 68012
ELEMENT_SET_NO = 999
REV_AT_EPOCH   = 409
BSTAR          = -.18912271E-1
MEAN_MOTION_DOT = -.1853627E-1
MEAN_MOTION_DDOT = 0

